{
  "type": "FeatureCollection",
  "features": [
    {
      "type": "Feature",
      "properties": {
        "norad_id": 66500,
        "name": "STARLINK-35894",
        "group": "last-30-days",
        "lat": 22.320996626176843,
        "lon": -27.51596695573804,
        "alt_km": 356.6712864003475,
        "timestamp": "2025-12-03T15:48:01.919589+00:00",
        "meta_object_name": "STARLINK-35894",
        "meta_object_id": "2025-263R",
        "meta_epoch": "2025-12-03T08:00:01.999872",
        "meta_mean_motion": 15.71580535,
        "meta_eccentricity": 0.00015386,
        "meta_inclination": 42.9992,
        "meta_ra_of_asc_node": 180.5858,
        "meta_arg_of_pericenter": 273.0233,
        "meta_mean_anomaly": 193.1385,
        "meta_ephemeris_type": 0,
        "meta_classification_type": "U",
        "meta_norad_cat_id": 66500,
        "meta_element_set_no": 999,
        "meta_rev_at_epoch": 412,
        "meta_bstar": -0.021510421,
        "meta_mean_motion_dot": -0.02492291,
        "meta_mean_motion_ddot": 0,
        "tle_line1": "1 66500U 25263R   25337.33335648 -.02492291  00000+0 -21510-1 0  9990",
        "tle_line2": "2 66500  42.9992 180.5858 0001538 273.0233 193.1385 15.71580535  4123"
      },
      "geometry": {
        "type": "Point",
        "coordinates": [
          -27.51596695573804,
          22.320996626176843
        ]
      }
    },
    {
      "type": "Feature",
      "properties": {
        "norad_id": 66501,
        "name": "STARLINK-35897",
        "group": "last-30-days",
        "lat": 19.120746865807693,
        "lon": -23.229429249712226,
        "alt_km": 354.53161439912856,
        "timestamp": "2025-12-03T15:48:01.919599+00:00",
        "meta_object_name": "STARLINK-35897",
        "meta_object_id": "2025-263S",
        "meta_epoch": "2025-12-03T08:00:01.999872",
        "meta_mean_motion": 15.72092241,
        "meta_eccentricity": 0.00015514,
        "meta_inclination": 42.9991,
        "meta_ra_of_asc_node": 180.5747,
        "meta_arg_of_pericenter": 270.9116,
        "meta_mean_anomaly": 199.5668,
        "meta_ephemeris_type": 0,
        "meta_classification_type": "U",
        "meta_norad_cat_id": 66501,
        "meta_element_set_no": 999,
        "meta_rev_at_epoch": 412,
        "meta_bstar": -0.01661475,
        "meta_mean_motion_dot": -0.01985661,
        "meta_mean_motion_ddot": 0,
        "tle_line1": "1 66501U 25263S   25337.33335648 -.01985661  00000+0 -16615-1 0  9998",
        "tle_line2": "2 66501  42.9991 180.5747 0001551 270.9116 199.5668 15.72092241  4128"
      },
      "geometry": {
        "type": "Point",
        "coordinates": [
          -23.229429249712226,
          19.120746865807693
        ]
      }
    },
    {
      "type": "Feature",
      "properties": {
        "norad_id": 66502,
        "name": "STARLINK-35922",
        "group": "last-30-days",
        "lat": 15.423980413859011,
        "lon": -18.6246792047674,
        "alt_km": 355.07982162892404,
        "timestamp": "2025-12-03T15:48:01.919611+00:00",
        "meta_object_name": "STARLINK-35922",
        "meta_object_id": "2025-263T",
        "meta_epoch": "2025-12-03T06:00:02.999808",
        "meta_mean_motion": 15.72458863,
        "meta_eccentricity": 0.00017117,
        "meta_inclination": 42.9991,
        "meta_ra_of_asc_node": 181.0631,
        "meta_arg_of_pericenter": 270.367,
        "meta_mean_anomaly": 93.6708,
        "meta_ephemeris_type": 0,
        "meta_classification_type": "U",
        "meta_norad_cat_id": 66502,
        "meta_element_set_no": 999,
        "meta_rev_at_epoch": 411,
        "meta_bstar": -0.016458082,
        "meta_mean_motion_dot": -0.01996875,
        "meta_mean_motion_ddot": 0,
        "tle_line1": "1 66502U 25263T   25337.25003472 -.01996875  00000+0 -16458-1 0  9991",
        "tle_line2": "2 66502  42.9991 181.0631 0001711 270.3670  93.6708 15.72458863  4118"
      },
      "geometry": {
        "type": "Point",
        "coordinates": [
          -18.6246792047674,
          15.423980413859011
        ]
      }
    },
    {
      "type": "Feature",
      "properties": {
        "norad_id": 66503,
        "name": "STARLINK-35917",
        "group": "last-30-days",
        "lat": 12.906270981532696,
        "lon": -15.647416286924548,
        "alt_km": 355.4056142644831,
        "timestamp": "2025-12-03T15:48:01.919620+00:00",
        "meta_object_name": "STARLINK-35917",
        "meta_object_id": "2025-263U",
        "meta_epoch": "2025-12-03T06:00:02.999808",
        "meta_mean_motion": 15.72454852,
        "meta_eccentricity": 0.00016606,
        "meta_inclination": 42.999,
        "meta_ra_of_asc_node": 181.0536,
        "meta_arg_of_pericenter": 271.6287,
        "meta_mean_anomaly": 96.2485,
        "meta_ephemeris_type": 0,
        "meta_classification_type": "U",
        "meta_norad_cat_id": 66503,
        "meta_element_set_no": 999,
        "meta_rev_at_epoch": 411,
        "meta_bstar": -0.016446633,
        "meta_mean_motion_dot": -0.01995302,
        "meta_mean_motion_ddot": 0,
        "tle_line1": "1 66503U 25263U   25337.25003472 -.01995302  00000+0 -16447-1 0  9994",
        "tle_line2": "2 66503  42.9990 181.0536 0001660 271.6287  96.2485 15.72454852  4118"
      },
      "geometry": {
        "type": "Point",
        "coordinates": [
          -15.647416286924548,
          12.906270981532696
        ]
      }
    },
    {
      "type": "Feature",
      "properties": {
        "norad_id": 66504,
        "name": "STARLINK-35916",
        "group": "last-30-days",
        "lat": -36.2113830020843,
        "lon": 127.34473657665862,
        "alt_km": 412.88826002158567,
        "timestamp": "2025-12-03T15:48:01.919629+00:00",
        "meta_object_name": "STARLINK-35916",
        "meta_object_id": "2025-263V",
        "meta_epoch": "2025-12-03T06:00:02.999808",
        "meta_mean_motion": 15.53795368,
        "meta_eccentricity": 0.00015821,
        "meta_inclination": 42.9992,
        "meta_ra_of_asc_node": 181.5334,
        "meta_arg_of_pericenter": 284.1196,
        "meta_mean_anomaly": 250.5204,
        "meta_ephemeris_type": 0,
        "meta_classification_type": "U",
        "meta_norad_cat_id": 66504,
        "meta_element_set_no": 999,
        "meta_rev_at_epoch": 411,
        "meta_bstar": -0.036671705,
        "meta_mean_motion_dot": -0.0214238,
        "meta_mean_motion_ddot": 0,
        "tle_line1": "1 66504U 25263V   25337.25003472 -.02142380  00000+0 -36672-1 0  9998",
        "tle_line2": "2 66504  42.9992 181.5334 0001582 284.1196 250.5204 15.53795368  4116"
      },
      "geometry": {
        "type": "Point",
        "coordinates": [
          127.34473657665862,
          -36.2113830020843
        ]
      }
    },
    {
      "type": "Feature",
      "properties": {
        "norad_id": 66505,
        "name": "STARLINK-34766",
        "group": "last-30-days",
        "lat": 17.90170560629267,
        "lon": -21.675645132300843,
        "alt_km": 354.61098176169617,
        "timestamp": "2025-12-03T15:48:01.919638+00:00",
        "meta_object_name": "STARLINK-34766",
        "meta_object_id": "2025-263W",
        "meta_epoch": "2025-12-03T06:00:02.999808",
        "meta_mean_motion": 15.72460279,
        "meta_eccentricity": 0.00017164,
        "meta_inclination": 42.9991,
        "meta_ra_of_asc_node": 181.0728,
        "meta_arg_of_pericenter": 263.6615,
        "meta_mean_anomaly": 96.5403,
        "meta_ephemeris_type": 0,
        "meta_classification_type": "U",
        "meta_norad_cat_id": 66505,
        "meta_element_set_no": 999,
        "meta_rev_at_epoch": 411,
        "meta_bstar": -0.016472627,
        "meta_mean_motion_dot": -0.01998543,
        "meta_mean_motion_ddot": 0,
        "tle_line1": "1 66505U 25263W   25337.25003472 -.01998543  00000+0 -16473-1 0  9995",
        "tle_line2": "2 66505  42.9991 181.0728 0001716 263.6615  96.5403 15.72460279  4115"
      },
      "geometry": {
        "type": "Point",
        "coordinates": [
          -21.675645132300843,
          17.90170560629267
        ]
      }
    },
    {
      "type": "Feature",
      "properties": {
        "norad_id": 66506,
        "name": "STARLINK-34765",
        "group": "last-30-days",
        "lat": 16.668708997975575,
        "lon": -20.139982481473293,
        "alt_km": 354.75314405643167,
        "timestamp": "2025-12-03T15:48:01.919682+00:00",
        "meta_object_name": "STARLINK-34765",
        "meta_object_id": "2025-263X",
        "meta_epoch": "2025-12-03T06:00:02.999808",
        "meta_mean_motion": 15.72457756,
        "meta_eccentricity": 0.0001669,
        "meta_inclination": 42.999,
        "meta_ra_of_asc_node": 181.0686,
        "meta_arg_of_pericenter": 263.8283,
        "meta_mean_anomaly": 98.2926,
        "meta_ephemeris_type": 0,
        "meta_classification_type": "U",
        "meta_norad_cat_id": 66506,
        "meta_element_set_no": 999,
        "meta_rev_at_epoch": 411,
        "meta_bstar": -0.016451597,
        "meta_mean_motion_dot": -0.01996061,
        "meta_mean_motion_ddot": 0,
        "tle_line1": "1 66506U 25263X   25337.25003472 -.01996061  00000+0 -16452-1 0  9996",
        "tle_line2": "2 66506  42.9990 181.0686 0001669 263.8283  98.2926 15.72457756  4113"
      },
      "geometry": {
        "type": "Point",
        "coordinates": [
          -20.139982481473293,
          16.668708997975575
        ]
      }
    }
  ]
}